ONEWEB-0171             
1 48070U 21025AE  25248.87586332  .00000107  00000+0  25857-3 0  9999
2 48070  87.9021  16.7283 0001600  98.4378 261.6932 13.13470535216292
ONEWEB-0172             
1 48071U 21025AF  25248.85553347 -.00000299  00000+0 -85272-3 0  9999
2 48071  87.9027  16.6999 0001606 101.7587 258.3722 13.13469634217185
ONEWEB-0174             
1 48072U 21025AG  25248.83691883 -.00000226  00000+0 -65480-3 0  9995
2 48072  87.9022  16.7156 0001811 101.1828 258.9505 13.13471512216505
ONEWEB-0175             
1 48073U 21025AH  25248.86739529  .00000025  00000+0  32618-4 0  9992
2 48073  87.9023  16.6748 0001382  94.9973 265.1314 13.13470647216164
ONEWEB-0177             
1 48074U 21025AJ  25248.87923940  .00000218  00000+0  56249-3 0  9995
2 48074  87.9028  16.6889 0001764 104.7150 255.4175 13.13470221216353
ONEWEB-0178             
1 48075U 21025AK  25248.89799243  .00000029  00000+0  44376-4 0  9994
2 48075  87.9029  16.7312 0001466 104.2544 255.8748 13.13469378216405
ONEWEB-0108             
1 48076U 21025AL  25248.85723416 -.00000219  00000+0 -63574-3 0  9993
2 48076  87.9022  16.6858 0001916  94.4766 265.6582 13.13470287216326
ONEWEB-0169             
1 48077U 21025AM  25248.88939759  .00000210  00000+0  54026-3 0  9997
2 48077  87.9026  16.7023 0001913  94.8050 265.3298 13.13469858214986
